ADRAS-J                 
1 58992U 24034A   24074.38637441  .00007050  00000+0  54833-3 0  9996
2 58992  98.2035  43.2097 0045816   3.4219 356.7308 15.00786332  3718
